ORBCOMM FM35            
1 25985U 99065F   26063.03937027  .00001372  00000+0  49732-3 0  9996
2 25985  45.0399 305.8477 0003430 271.0739  88.9717 14.37858752372174
ORBCOMM FM34            
1 25986U 99065G   26063.00984580  .00001182  00000+0  43577-3 0  9990
2 25986  45.0395 306.4951 0002989 213.4571 146.6089 14.37772219372286
ORBCOMM FM38            
1 33060U 08031A   26063.19912347  .00002953  00000+0  38852-3 0  9994
2 33060  48.4387 154.8846 0003813  81.9681 278.1668 14.82704565953313
ORBCOMM FM41            
1 33061U 08031B   26062.70099040  .00002658  00000+0  35618-3 0  9996
2 33061  48.4424 165.9792 0003146  59.3823  93.5054 14.82236253952710
ORBCOMM FM29            
1 33062U 08031C   26062.72959249  .00002918  00000+0  38687-3 0  9993
2 33062  48.4374 173.2777 0004761  60.9261  92.4044 14.82409704952639
ORBCOMM FM39            
1 33063U 08031D   26062.79649968  .00002659  00000+0  36859-3 0  9996
2 33063  48.4384 200.2281 0005935  28.5958 331.5282 14.80792110952252
ORBCOMM FM37            
1 33064U 08031E   26062.75970084  .00002609  00000+0  36048-3 0  9994
2 33064  48.4380 188.5232 0004392  49.1760 103.6988 14.80986006952507
ORBCOMM FM40            
1 33065U 08031F   26062.71900578  .00003306  00000+0  42241-3 0  9999
2 33065  48.4400 168.0824 0005190  68.0382  85.0756 14.83620247952677
VESSELSAT 1             
1 37840U 11058C   26063.06131462  .00000407  00000+0  77005-4 0  9990
2 37840  19.9629 321.3105 0013703 165.0099 195.0713 14.11419036743065
ORBCOMM FM109           
1 40086U 14040A   26062.48612581  .00000747  00000+0  19479-3 0  9998
2 40086  47.0020 231.1854 0001152 108.1548 251.9464 14.58710652618918
ORBCOMM FM107           
1 40087U 14040B   26062.77506343  .00001072  00000+0  26324-3 0  9998
2 40087  47.0035 230.6735 0000681 356.3003   3.7878 14.58795795619033
ORBCOMM FM106           
1 40088U 14040C   26063.03275794  .00001613  00000+0  29513-3 0  9996
2 40088  47.0612  30.4755 0016395 198.0492 161.9819 14.70286447621707
ORBCOMM FM111           
1 40089U 14040D   26062.72953888  .00004593  00000+0  51086-3 0  9999
2 40089  46.9992 205.9639 0028344 354.9157   5.1449 14.88300410628863
ORBCOMM FM104           
1 40090U 14040E   26063.05108578  .00000769  00000+0  20618-3 0  9994
2 40090  47.0042 266.1360 0016470 311.7498  48.1978 14.57157033618511
ORBCOMM FM103           
1 40091U 14040F   26062.89943148  .00000961  00000+0  24036-3 0  9998
2 40091  47.0039 230.8026 0001226  13.9699 346.1221 14.58698551602018
ORBCOMM FM114           
1 41179U 15081A   26062.57255876  .00000786  00000+0  20306-3 0  9992
2 41179  47.0042 141.2880 0001266  74.5268 285.5758 14.58718203542338
ORBCOMM FM119           
1 41180U 15081B   26063.11958322  .00001016  00000+0  25220-3 0  9998
2 41180  47.0009  48.0604 0000918 218.6911 141.3909 14.58662737543664
